start=new Date('2022-12-18T00:00:00.000Z').valueOf();
sats=[{"ECCENTRICITY":"0.00015220","TIME_SYSTEM":"UTC","PERIAPSIS":"546.187","RA_OF_ASC_NODE":"239.1912","MEAN_ANOMALY":"279.4115","ARG_OF_PERICENTER":"80.7046","TLE_LINE2":"2 48370  53.0541 239.1912 0001522  80.7046 279.4115 15.06390971 89630","MEAN_MOTION":"15.06390971","COUNTRY_CODE":"US","GP_ID":"220755377","ELEMENT_SET_NO":"999","FILE":"3707070","EPHEMERIS_TYPE":"0","OBJECT_NAME":"STARLINK-2621","RCS_SIZE":"LARGE","MEAN_MOTION_DOT":"-0.00000925","TLE_LINE1":"1 48370U 21038T   22351.84232088 -.00000925  00000-0 -43206-4 0  9991","NORAD_CAT_ID":"48370","MEAN_MOTION_DDOT":"0.0000000000000","MEAN_ELEMENT_THEORY":"SGP4","BSTAR":"-0.00004320600000","LAUNCH_DATE":"2021-05-04","SEMIMAJOR_AXIS":"6925.376","APOAPSIS":"548.295","EPOCH":"2022-12-17T20:12:56.524032","OBJECT_TYPE":"PAYLOAD","REF_FRAME":"TEME","PERIOD":"95.593","DECAY_DATE":null,"CENTER_NAME":"EARTH","REV_AT_EPOCH":"8963","CLASSIFICATION_TYPE":"U","SITE":"AFETR","OBJECT_ID":"2021-038T","INCLINATION":"53.0541"},{"OBJECT_ID":"2021-038U","INCLINATION":"53.0533","REV_AT_EPOCH":"8963","DECAY_DATE":null,"CENTER_NAME":"EARTH","CLASSIFICATION_TYPE":"U","SITE":"AFETR","EPOCH":"2022-12-17T20:07:37.347744","PERIOD":"95.592","OBJECT_TYPE":"PAYLOAD","REF_FRAME":"TEME","SEMIMAJOR_AXIS":"6925.363","BSTAR":"-0.00000216140000","LAUNCH_DATE":"2021-05-04","APOAPSIS":"548.276","MEAN_MOTION_DDOT":"0.0000000000000","NORAD_CAT_ID":"48371","MEAN_ELEMENT_THEORY":"SGP4","OBJECT_NAME":"STARLINK-2589","MEAN_MOTION_DOT":"-0.00000314","TLE_LINE1":"1 48371U 21038U   22351.83862671 -.00000314  00000-0 -21614-5 0  9990","RCS_SIZE":"LARGE","EPHEMERIS_TYPE":"0","FILE":"3707070","ELEMENT_SET_NO":"999","COUNTRY_CODE":"US","GP_ID":"220756628","TLE_LINE2":"2 48371  53.0533 239.2036 0001513  76.3949 283.7209 15.06395332 89631","MEAN_MOTION":"15.06395332","ARG_OF_PERICENTER":"76.3949","MEAN_ANOMALY":"283.7209","PERIAPSIS":"546.180","RA_OF_ASC_NODE":"239.2036","TIME_SYSTEM":"UTC","ECCENTRICITY":"0.00015130"},{"ECCENTRICITY":"0.00014270","RA_OF_ASC_NODE":"239.2182","PERIAPSIS":"546.244","TIME_SYSTEM":"UTC","ARG_OF_PERICENTER":"78.9512","MEAN_MOTION":"15.06393937","TLE_LINE2":"2 48372  53.0539 239.2182 0001427  78.9512 281.1637 15.06393937 89634","MEAN_ANOMALY":"281.1637","ELEMENT_SET_NO":"999","GP_ID":"220756879","COUNTRY_CODE":"US","RCS_SIZE":"LARGE","MEAN_MOTION_DOT":"-0.00000891","TLE_LINE1":"1 48372U 21038V   22351.83494179 -.00000891  00000-0 -40946-4 0  9993","OBJECT_NAME":"STARLINK-2572","FILE":"3707070","EPHEMERIS_TYPE":"0","APOAPSIS":"548.220","LAUNCH_DATE":"2021-05-04","BSTAR":"-0.00004094600000","SEMIMAJOR_AXIS":"6925.367","MEAN_ELEMENT_THEORY":"SGP4","NORAD_CAT_ID":"48372","MEAN_MOTION_DDOT":"0.0000000000000","OBJECT_TYPE":"PAYLOAD","REF_FRAME":"TEME","PERIOD":"95.593","EPOCH":"2022-12-17T20:02:18.970656","INCLINATION":"53.0539","OBJECT_ID":"2021-038V","SITE":"AFETR","DECAY_DATE":null,"CENTER_NAME":"EARTH","REV_AT_EPOCH":"8963","CLASSIFICATION_TYPE":"U"},{"RA_OF_ASC_NODE":"239.2262","PERIAPSIS":"546.357","TIME_SYSTEM":"UTC","ECCENTRICITY":"0.00013340","ELEMENT_SET_NO":"999","GP_ID":"220755627","COUNTRY_CODE":"US","ARG_OF_PERICENTER":"70.1078","MEAN_MOTION":"15.06378101","TLE_LINE2":"2 48373  53.0546 239.2262 0001334  70.1078 290.0055 15.06378101 89639","MEAN_ANOMALY":"290.0055","APOAPSIS":"548.205","LAUNCH_DATE":"2021-05-04","BSTAR":"-0.00000464210000","SEMIMAJOR_AXIS":"6925.416","MEAN_ELEMENT_THEORY":"SGP4","NORAD_CAT_ID":"48373","MEAN_MOTION_DDOT":"0.0000000000000","RCS_SIZE":"LARGE","MEAN_MOTION_DOT":"-0.00000350","TLE_LINE1":"1 48373U 21038W   22351.83127844 -.00000350  00000-0 -46421-5 0  9991","OBJECT_NAME":"STARLINK-2609","FILE":"3707070","EPHEMERIS_TYPE":"0","INCLINATION":"53.0546","OBJECT_ID":"2021-038W","SITE":"AFETR","CENTER_NAME":"EARTH","DECAY_DATE":null,"REV_AT_EPOCH":"8963","CLASSIFICATION_TYPE":"U","REF_FRAME":"TEME","OBJECT_TYPE":"PAYLOAD","PERIOD":"95.594","EPOCH":"2022-12-17T19:57:02.457216"},{"INCLINATION":"53.0541","OBJECT_ID":"2021-038X","SITE":"AFETR","DECAY_DATE":null,"REV_AT_EPOCH":"8957","CENTER_NAME":"EARTH","CLASSIFICATION_TYPE":"U","PERIOD":"95.593","OBJECT_TYPE":"PAYLOAD","REF_FRAME":"TEME","EPOCH":"2022-12-17T10:17:06.218016","APOAPSIS":"548.326","SEMIMAJOR_AXIS":"6925.383","LAUNCH_DATE":"2021-05-04","BSTAR":"-0.00002719800000","MEAN_ELEMENT_THEORY":"SGP4","MEAN_MOTION_DDOT":"0.0000000000000","NORAD_CAT_ID":"48374","MEAN_MOTION_DOT":"-0.00000686","TLE_LINE1":"1 48374U 21038X   22351.42854419 -.00000686  00000-0 -27198-4 0  9993","RCS_SIZE":"LARGE","OBJECT_NAME":"STARLINK-2604","EPHEMERIS_TYPE":"0","FILE":"3705911","ELEMENT_SET_NO":"999","GP_ID":"220704718","COUNTRY_CODE":"US","TLE_LINE2":"2 48374  53.0541 241.0368 0001557  75.5724 284.5438 15.06388911 89573","MEAN_MOTION":"15.06388911","ARG_OF_PERICENTER":"75.5724","MEAN_ANOMALY":"284.5438","RA_OF_ASC_NODE":"241.0368","PERIAPSIS":"546.169","TIME_SYSTEM":"UTC","ECCENTRICITY":"0.00015570"},{"OBJECT_ID":"2021-038Y","INCLINATION":"53.0542","DECAY_DATE":null,"CENTER_NAME":"EARTH","REV_AT_EPOCH":"8957","CLASSIFICATION_TYPE":"U","SITE":"AFETR","EPOCH":"2022-12-17T10:13:09.127776","OBJECT_TYPE":"PAYLOAD","REF_FRAME":"TEME","PERIOD":"95.592","BSTAR":"0.00010218000000","LAUNCH_DATE":"2021-05-04","SEMIMAJOR_AXIS":"6925.357","APOAPSIS":"548.150","NORAD_CAT_ID":"48375","MEAN_MOTION_DDOT":"0.0000000000000","MEAN_ELEMENT_THEORY":"SGP4","OBJECT_NAME":"STARLINK-2603","RCS_SIZE":"LARGE","TLE_LINE1":"1 48375U 21038Y   22351.42580009  .00001241  00000-0  10218-3 0  9995","MEAN_MOTION_DOT":"0.00001241","FILE":"3705911","EPHEMERIS_TYPE":"0","ELEMENT_SET_NO":"999","COUNTRY_CODE":"US","GP_ID":"220704965","ARG_OF_PERICENTER":"77.2804","MEAN_MOTION":"15.06397254","TLE_LINE2":"2 48375  53.0542 241.0523 0001340  77.2804 282.8335 15.06397254 89573","MEAN_ANOMALY":"282.8335","PERIAPSIS":"546.294","RA_OF_ASC_NODE":"241.0523","TIME_SYSTEM":"UTC","ECCENTRICITY":"0.00013400"},{"INCLINATION":"53.0532","OBJECT_ID":"2021-038Z","SITE":"AFETR","REV_AT_EPOCH":"8961","DECAY_DATE":null,"CLASSIFICATION_TYPE":"U","CENTER_NAME":"EARTH","REF_FRAME":"TEME","OBJECT_TYPE":"PAYLOAD","PERIOD":"95.592","EPOCH":"2022-12-17T16:30:00.095904","APOAPSIS":"548.083","BSTAR":"0.00000216950000","LAUNCH_DATE":"2021-05-04","SEMIMAJOR_AXIS":"6925.356","MEAN_ELEMENT_THEORY":"SGP4","NORAD_CAT_ID":"48376","MEAN_MOTION_DDOT":"0.0000000000000","RCS_SIZE":"LARGE","MEAN_MOTION_DOT":"-0.00000249","TLE_LINE1":"1 48376U 21038Z   22351.68750111 -.00000249  00000-0  21695-5 0  9998","OBJECT_NAME":"STARLINK-2610","FILE":"3707070","EPHEMERIS_TYPE":"0","ELEMENT_SET_NO":"999","GP_ID":"220756380","COUNTRY_CODE":"US","ARG_OF_PERICENTER":"76.4591","TLE_LINE2":"2 48376  53.0532 239.8789 0001244  76.4591 283.6537 15.06397536 89610","MEAN_MOTION":"15.06397536","MEAN_ANOMALY":"283.6537","RA_OF_ASC_NODE":"239.8789","PERIAPSIS":"546.360","TIME_SYSTEM":"UTC","ECCENTRICITY":"0.00012440"},{"ECCENTRICITY":"0.00015470","RA_OF_ASC_NODE":"241.0794","PERIAPSIS":"546.168","TIME_SYSTEM":"UTC","ARG_OF_PERICENTER":"70.6680","TLE_LINE2":"2 48377  53.0546 241.0794 0001547  70.6680 289.4476 15.06391497 89579","MEAN_MOTION":"15.06391497","MEAN_ANOMALY":"289.4476","ELEMENT_SET_NO":"999","GP_ID":"220703969","COUNTRY_CODE":"US","RCS_SIZE":"LARGE","TLE_LINE1":"1 48377U 21038AA  22351.41842993 -.00000160  00000-0  81828-5 0  9996","MEAN_MOTION_DOT":"-0.00000160","OBJECT_NAME":"STARLINK-2499","FILE":"3705911","EPHEMERIS_TYPE":"0","APOAPSIS":"548.311","BSTAR":"0.00000818280000","LAUNCH_DATE":"2021-05-04","SEMIMAJOR_AXIS":"6925.375","MEAN_ELEMENT_THEORY":"SGP4","NORAD_CAT_ID":"48377","MEAN_MOTION_DDOT":"0.0000000000000","OBJECT_TYPE":"PAYLOAD","REF_FRAME":"TEME","PERIOD":"95.593","EPOCH":"2022-12-17T10:02:32.345952","INCLINATION":"53.0546","OBJECT_ID":"2021-038AA","SITE":"AFETR","CENTER_NAME":"EARTH","DECAY_DATE":null,"REV_AT_EPOCH":"8957","CLASSIFICATION_TYPE":"U"},{"TIME_SYSTEM":"UTC","RA_OF_ASC_NODE":"242.6008","PERIAPSIS":"546.229","ECCENTRICITY":"0.00014770","GP_ID":"220704219","COUNTRY_CODE":"US","ELEMENT_SET_NO":"999","MEAN_ANOMALY":"283.5731","TLE_LINE2":"2 48378  53.0544 242.6008 0001477  76.5422 283.5731 15.06387620 89521","MEAN_MOTION":"15.06387620","ARG_OF_PERICENTER":"76.5422","MEAN_ELEMENT_THEORY":"SGP4","MEAN_MOTION_DDOT":"0.0000000000000","NORAD_CAT_ID":"48378","APOAPSIS":"548.274","SEMIMAJOR_AXIS":"6925.387","BSTAR":"0.00011208000000","LAUNCH_DATE":"2021-05-04","EPHEMERIS_TYPE":"0","FILE":"3705911","TLE_LINE1":"1 48378U 21038AB  22351.08301601  .00001388  00000-0  11208-3 0  9991","MEAN_MOTION_DOT":"0.00001388","RCS_SIZE":"LARGE","OBJECT_NAME":"STARLINK-2526","SITE":"AFETR","DECAY_DATE":null,"CENTER_NAME":"EARTH","REV_AT_EPOCH":"8952","CLASSIFICATION_TYPE":"U","INCLINATION":"53.0544","OBJECT_ID":"2021-038AB","PERIOD":"95.593","OBJECT_TYPE":"PAYLOAD","REF_FRAME":"TEME","EPOCH":"2022-12-17T01:59:32.583264"},{"TLE_LINE2":"2 48379  53.0548 241.1204 0001573  79.2488 280.8678 15.06390448 89574","MEAN_MOTION":"15.06390448","ARG_OF_PERICENTER":"79.2488","MEAN_ANOMALY":"280.8678","ELEMENT_SET_NO":"999","GP_ID":"220705465","COUNTRY_CODE":"US","ECCENTRICITY":"0.00015730","RA_OF_ASC_NODE":"241.1204","PERIAPSIS":"546.153","TIME_SYSTEM":"UTC","PERIOD":"95.593","REF_FRAME":"TEME","OBJECT_TYPE":"PAYLOAD","EPOCH":"2022-12-17T09:51:55.551168","INCLINATION":"53.0548","OBJECT_ID":"2021-038AC","SITE":"AFETR","DECAY_DATE":null,"CLASSIFICATION_TYPE":"U","REV_AT_EPOCH":"8957","CENTER_NAME":"EARTH","TLE_LINE1":"1 48379U 21038AC  22351.41105962 -.00000010  00000-0  18202-4 0  9995","MEAN_MOTION_DOT":"-0.00000010","RCS_SIZE":"MEDIUM","OBJECT_NAME":"STARLINK-2612","EPHEMERIS_TYPE":"0","FILE":"3705911","APOAPSIS":"548.332","SEMIMAJOR_AXIS":"6925.378","LAUNCH_DATE":"2021-05-04","BSTAR":"0.00001820200000","MEAN_ELEMENT_THEORY":"SGP4","MEAN_MOTION_DDOT":"0.0000000000000","NORAD_CAT_ID":"48379"}];
